LEMUR-2-GREENBERG       
1 42837U 17042N   26068.46200528  .00019778  00000+0  72539-3 0  9997
2 42837  97.3781 249.8007 0009157   4.0119 356.1192 15.27971352473146
STARLINK-33960          
1 63966U 25099Q   26068.32733710  .00028557  00000+0  10430-2 0  9999
2 63966  42.9956 178.0221 0000432 252.3904 107.6900 15.27588078 47287
