[{"OBJECT_NAME":"LEMUR-2-GREENBERG","OBJECT_ID":"2017-042N","EPOCH":"2026-03-09T11:05:17.256192","MEAN_MOTION":15.27971352,"ECCENTRICITY":0.00091572,"INCLINATION":97.3781,"RA_OF_ASC_NODE":249.8007,"ARG_OF_PERICENTER":4.0119,"MEAN_ANOMALY":356.1192,"EPHEMERIS_TYPE":0,"CLASSIFICATION_TYPE":"U","NORAD_CAT_ID":42837,"ELEMENT_SET_NO":999,"REV_AT_EPOCH":47314,"BSTAR":0.00072539172,"MEAN_MOTION_DOT":0.00019778,"MEAN_MOTION_DDOT":0},{"OBJECT_NAME":"STARLINK-33960","OBJECT_ID":"2025-099Q","EPOCH":"2026-03-09T07:51:21.925440","MEAN_MOTION":15.27588078,"ECCENTRICITY":4.327e-5,"INCLINATION":42.9956,"RA_OF_ASC_NODE":178.0221,"ARG_OF_PERICENTER":252.3904,"MEAN_ANOMALY":107.69,"EPHEMERIS_TYPE":0,"CLASSIFICATION_TYPE":"U","NORAD_CAT_ID":63966,"ELEMENT_SET_NO":999,"REV_AT_EPOCH":4728,"BSTAR":0.001043004,"MEAN_MOTION_DOT":0.00028557,"MEAN_MOTION_DDOT":0}]
